[{"OBJECT_NAME":"STARLINK-4342","OBJECT_ID":"2022-077AD","EPOCH":"2026-03-09T22:16:51.769344","MEAN_MOTION":15.05631046,"ECCENTRICITY":7.864e-5,"INCLINATION":97.6021,"RA_OF_ASC_NODE":251.546,"ARG_OF_PERICENTER":86.6122,"MEAN_ANOMALY":273.5195,"EPHEMERIS_TYPE":0,"CLASSIFICATION_TYPE":"U","NORAD_CAT_ID":53070,"ELEMENT_SET_NO":999,"REV_AT_EPOCH":20102,"BSTAR":0.0001974698,"MEAN_MOTION_DOT":2.788e-5,"MEAN_MOTION_DDOT":0},{"OBJECT_NAME":"COSMOS 397 DEB","OBJECT_ID":"1971-015AM","EPOCH":"2026-03-09T10:35:37.503456","MEAN_MOTION":13.78905525,"ECCENTRICITY":0.05800552,"INCLINATION":65.645,"RA_OF_ASC_NODE":106.5344,"ARG_OF_PERICENTER":135.5672,"MEAN_ANOMALY":229.3475,"EPHEMERIS_TYPE":0,"CLASSIFICATION_TYPE":"U","NORAD_CAT_ID":5187,"ELEMENT_SET_NO":999,"REV_AT_EPOCH":65826,"BSTAR":0.00070809772,"MEAN_MOTION_DOT":2.512e-5,"MEAN_MOTION_DDOT":0}]
